CUBEBUG-2 (LO-74)       
1 39440U 13066AA  26178.31177139  .00004554  00000+0  42088-3 0  9994
2 39440  97.8904 127.3330 0057383 355.5679   4.5024 14.93842300678509
FUNCUBE-1 (AO-73)       
1 39444U 13066AE  26178.19848783  .00007726  00000+0  47725-3 0  9991
2 39444  97.8270 149.8537 0036673 166.8989 193.3201 15.09604737681172
UWE-3                   
1 39446U 13066AG  26177.84042902  .00004205  00000+0  36187-3 0  9992
2 39446  97.8709 133.9799 0046794 288.3987  71.2149 14.97101122679020
UNISAT-6                
1 40012U 14033C   26178.01660234  .00002676  00000+0  29005-3 0  9993
2 40012  97.7883 330.5560 0045670  37.6465 322.7933 14.88291418647626
DUCHIFAT-1              
1 40021U 14033M   26178.12074074  .00123708  00000+0  11664-2 0  9997
2 40021  98.0447 238.6906 0001012 103.7667 256.3704 15.66663856657309
QB50P1                  
1 40025U 14033R   26178.29918808  .00008713  00000+0  42669-3 0  9999
2 40025  98.0962 190.1548 0008862 179.4885 180.6358 15.18409172654566
LILACSAT-2              
1 40908U 15049K   26178.33302722  .00018646  00000+0  31362-3 0  9998
2 40908  97.4637 215.5614 0006478 200.5095 159.5898 15.51771421597324
FOX-1A (AO-85)          
1 40967U 15058D   26178.27947905  .00002262  00000+0  20894-3 0  9999
2 40967  64.7747 247.6192 0131051  52.6707 308.6261 14.91010546115073
CAS-2T & KS-1Q          
1 41847U 16066G   26178.21399966  .00001654  00000+0  23813-3 0  9997
2 41847  98.3821 253.8357 0342893  99.1618 264.8526 14.44725785506240
RADFXSAT (FOX-1B)       
1 43017U 17073E   26177.86511221  .00006924  00000+0  30344-3 0  9999
2 43017  97.4694  44.8822 0148600 295.5005  63.0920 15.12844339466858
DIWATA-2B               
1 43678U 18084H   26178.23959748  .00001956  00000+0  16026-3 0  9998
2 43678  98.1203  14.8864 0013025 138.6992 221.5218 15.00493685417726
ES'HAIL 2               
1 43700U 18090A   26178.16974252  .00000156  00000+0  00000+0 0  9992
2 43700   0.0097  15.5646 0002144 113.3726 233.2389  1.00270707 27770
FOX-1CLIFF (AO-95)      
1 43770U 18099N   26177.97399440  .00012361  00000+0  46988-3 0  9996
2 43770  97.4387 238.1847 0007112 318.8869  41.1833 15.26910459414717
ITASAT                  
1 43786U 18099AE  26178.09978421  .00007273  00000+0  34842-3 0  9991
2 43786  97.4026 229.4136 0011154 323.3169  36.7301 15.19174435414418
JY1SAT (JO-97)          
1 43803U 18099AX  26178.14272791  .00018364  00000+0  56045-3 0  9996
2 43803  97.4134 241.0127 0005113 218.5591 141.5287 15.33961591415153
UWE-4                   
1 43880U 18111E   26178.05078895  .00034426  00000+0  68805-3 0  9999
2 43880  97.5849 106.9000 0004315 290.5001  69.5785 15.46723335412302
TIANYAN 01              
1 44881U 19093C   26178.27621902  .00000817  00000+0  98104-4 0  9991
2 44881  97.7532 250.2623 0014865  56.9226 303.3415 14.86533425352914
RS-44 & BREEZE-KM R/B   
1 44909U 19096E   26178.16874641  .00000015  00000+0  58243-5 0  9994
2 44909  82.5226 333.0713 0218477 120.9258 241.3520 12.79749020303621
SALSAT                  
1 46495U 20068K   26177.95657953  .00008212  00000+0  28601-3 0  9998
2 46495  97.8848 181.6168 0007823 266.2984  93.7361 15.29932421316852
XW-3 (CAS-9)            
1 50466U 21131B   26178.25920309  .00000530  00000+0  17738-3 0  9999
2 50466  98.4984 270.5944 0005352  73.3346 286.8430 14.41366378236563
GREENCUBE (IO-117)      
1 53109U 22080E   26177.67811985 -.00000003  00000+0  00000+0 0  9990
2 53109  70.1443 294.9444 0008984 287.5437  72.4241  6.42583228 92674
UMKA 1 (RS40S)          
1 57172U 23091G   26178.29196988  .00006529  00000+0  29738-3 0  9996
2 57172  97.5052 236.9504 0014290  86.5140 273.7730 15.20931844165548
CUBESX-HSE 3 (RS42S)    
1 57178U 23091N   26178.23695543  .00014310  00000+0  47230-3 0  9991
2 57178  97.5095 243.9518 0011493  63.2685 296.9731 15.31462356165965
MONITOR-3 (RS58S)       
1 57180U 23091Q   26178.28375550  .00010984  00000+0  40328-3 0  9996
2 57180  97.5086 241.8043 0012704  69.4849 290.7752 15.28039788165830
MONITOR-4 (RS57S)       
1 57182U 23091S   26178.19677010  .00011602  00000+0  42472-3 0  9994
2 57182  97.5080 241.6885 0012699  69.9430 290.3175 15.28122656165823
MONITOR-2 (RS39S)       
1 57184U 23091U   26178.26009151  .00005318  00000+0  25691-3 0  9990
2 57184  97.5073 236.4779 0012674  80.6740 279.5926 15.19000516165483
SVYATOBOR 1 (RS60S)     
1 57187U 23091X   26178.28408475  .00009566  00000+0  36556-3 0  9998
2 57187  97.5092 242.1573 0010453  63.9034 296.3279 15.26781761165851
VIZARD-METEO (RS38S)    
1 57189U 23091Z   26178.24418503  .00018365  00000+0  51957-3 0  9998
2 57189  97.5095 247.9321 0007490  46.4216 313.7648 15.36338341166235
POLYTECH-UNIVERSE 3 (R*)
1 57191U 23091AB  26178.28594689  .00005494  00000+0  26331-3 0  9992
2 57191  97.5049 236.0078 0017068  94.9495 265.3688 15.19207596165484
UTMN 2 (RS27S)          
1 57203U 23091AP  26178.24907534  .00014218  00000+0  45775-3 0  9996
2 57203  97.5091 245.6103 0008609  53.1258 307.0771 15.32291451166087
